[{"OBJECT_NAME":"STARLINK-35479","OBJECT_ID":"2025-253H","EPOCH":"2026-03-09T10:14:25.936512","MEAN_MOTION":15.27610344,"ECCENTRICITY":6.014e-5,"INCLINATION":42.9949,"RA_OF_ASC_NODE":214.038,"ARG_OF_PERICENTER":172.3535,"MEAN_ANOMALY":187.7326,"EPHEMERIS_TYPE":0,"CLASSIFICATION_TYPE":"U","NORAD_CAT_ID":66326,"ELEMENT_SET_NO":999,"REV_AT_EPOCH":2020,"BSTAR":0.0012142397,"MEAN_MOTION_DOT":0.00033333,"MEAN_MOTION_DDOT":0},{"OBJECT_NAME":"NOAA 17 DEB","OBJECT_ID":"2002-032AF","EPOCH":"2026-03-09T00:24:06.552000","MEAN_MOTION":15.25501717,"ECCENTRICITY":0.00030847,"INCLINATION":98.6472,"RA_OF_ASC_NODE":92.5947,"ARG_OF_PERICENTER":165.9893,"MEAN_ANOMALY":194.1428,"EPHEMERIS_TYPE":0,"CLASSIFICATION_TYPE":"U","NORAD_CAT_ID":48614,"ELEMENT_SET_NO":999,"REV_AT_EPOCH":26420,"BSTAR":0.01090047,"MEAN_MOTION_DOT":0.00286783,"MEAN_MOTION_DDOT":0}]
